[{"OBJECT_NAME":"SKYCRAFT-4A","OBJECT_ID":"2025-154J","EPOCH":"2026-03-09T16:59:51.135072","MEAN_MOTION":14.95268947,"ECCENTRICITY":0.00048742,"INCLINATION":97.6797,"RA_OF_ASC_NODE":135.107,"ARG_OF_PERICENTER":223.0221,"MEAN_ANOMALY":137.062,"EPHEMERIS_TYPE":0,"CLASSIFICATION_TYPE":"U","NORAD_CAT_ID":64897,"ELEMENT_SET_NO":999,"REV_AT_EPOCH":3251,"BSTAR":0.00074813792,"MEAN_MOTION_DOT":8.187e-5,"MEAN_MOTION_DDOT":0},{"OBJECT_NAME":"CZ-6A DEB","OBJECT_ID":"2024-140TY","EPOCH":"2026-03-09T15:25:48.532512","MEAN_MOTION":14.77098477,"ECCENTRICITY":0.0162256,"INCLINATION":89.1158,"RA_OF_ASC_NODE":288.8548,"ARG_OF_PERICENTER":182.348,"MEAN_ANOMALY":177.7001,"EPHEMERIS_TYPE":0,"CLASSIFICATION_TYPE":"U","NORAD_CAT_ID":61311,"ELEMENT_SET_NO":999,"REV_AT_EPOCH":8223,"BSTAR":0.00066942,"MEAN_MOTION_DOT":5.907e-5,"MEAN_MOTION_DDOT":0}]
